{
  "type": "FeatureCollection",
  "features": [
    {
      "type": "Feature",
      "properties": {
        "norad_id": 31612,
        "name": "FENGYUN 1C DEB",
        "group": "fengyun-1c-debris",
        "lat": -37.03964774377983,
        "lon": 70.06129199107012,
        "alt_km": 376.82691243030604,
        "timestamp": "2025-12-09T18:55:17.515331+00:00",
        "meta_object_name": "FENGYUN 1C DEB",
        "meta_object_id": "1999-025BZS",
        "meta_epoch": "2025-11-26T23:13:26.859936",
        "meta_mean_motion": 15.63030412,
        "meta_eccentricity": 0.0034124,
        "meta_inclination": 100.3408,
        "meta_ra_of_asc_node": 239.2079,
        "meta_arg_of_pericenter": 150.8693,
        "meta_mean_anomaly": 209.4468,
        "meta_ephemeris_type": 0,
        "meta_classification_type": "U",
        "meta_norad_cat_id": 31612,
        "meta_element_set_no": 999,
        "meta_rev_at_epoch": 99915,
        "meta_bstar": 0.0020210875,
        "meta_mean_motion_dot": 0.00192851,
        "meta_mean_motion_ddot": 0,
        "tle_line1": "1 31612U 99025BZS 25330.96767199  .00192851  00000+0  20211-2 0  9998",
        "tle_line2": "2 31612 100.3408 239.2079 0034124 150.8693 209.4468 15.63030412999150"
      },
      "geometry": {
        "type": "Point",
        "coordinates": [
          70.06129199107012,
          -37.03964774377983
        ]
      }
    },
    {
      "type": "Feature",
      "properties": {
        "norad_id": 31613,
        "name": "FENGYUN 1C DEB",
        "group": "fengyun-1c-debris",
        "lat": 79.56369764633922,
        "lon": 44.78927236345434,
        "alt_km": 773.353791630112,
        "timestamp": "2025-12-09T18:55:17.515341+00:00",
        "meta_object_name": "FENGYUN 1C DEB",
        "meta_object_id": "1999-025BZT",
        "meta_epoch": "2025-12-07T06:34:51.947904",
        "meta_mean_motion": 13.63418054,
        "meta_eccentricity": 0.03428009,
        "meta_inclination": 98.4242,
        "meta_ra_of_asc_node": 169.0409,
        "meta_arg_of_pericenter": 120.5223,
        "meta_mean_anomaly": 243.0233,
        "meta_ephemeris_type": 0,
        "meta_classification_type": "U",
        "meta_norad_cat_id": 31613,
        "meta_element_set_no": 999,
        "meta_rev_at_epoch": 91687,
        "meta_bstar": 0.0020758849,
        "meta_mean_motion_dot": 2.402e-05,
        "meta_mean_motion_ddot": 0,
        "tle_line1": "1 31613U 99025BZT 25341.27421236  .00002402  00000+0  20759-2 0  9993",
        "tle_line2": "2 31613  98.4242 169.0409 0342800 120.5223 243.0233 13.63418054916879"
      },
      "geometry": {
        "type": "Point",
        "coordinates": [
          44.78927236345434,
          79.56369764633922
        ]
      }
    },
    {
      "type": "Feature",
      "properties": {
        "norad_id": 31614,
        "name": "FENGYUN 1C DEB",
        "group": "fengyun-1c-debris",
        "lat": 15.687384537139753,
        "lon": 71.68499289618151,
        "alt_km": 592.0443078027702,
        "timestamp": "2025-12-09T18:55:17.515351+00:00",
        "meta_object_name": "FENGYUN 1C DEB",
        "meta_object_id": "1999-025BZU",
        "meta_epoch": "2025-12-09T05:54:34.360128",
        "meta_mean_motion": 14.96412472,
        "meta_eccentricity": 0.0022366,
        "meta_inclination": 98.9737,
        "meta_ra_of_asc_node": 248.5203,
        "meta_arg_of_pericenter": 13.9411,
        "meta_mean_anomaly": 110.8638,
        "meta_ephemeris_type": 0,
        "meta_classification_type": "U",
        "meta_norad_cat_id": 31614,
        "meta_element_set_no": 999,
        "meta_rev_at_epoch": 96377,
        "meta_bstar": 0.010716,
        "meta_mean_motion_dot": 0.00124104,
        "meta_mean_motion_ddot": 0,
        "tle_line1": "1 31614U 99025BZU 25343.24623102  .00124104  00000+0  10716-1 0  9994",
        "tle_line2": "2 31614  98.9737 248.5203 0022366  13.9411 110.8638 14.96412472963771"
      },
      "geometry": {
        "type": "Point",
        "coordinates": [
          71.68499289618151,
          15.687384537139753
        ]
      }
    },
    {
      "type": "Feature",
      "properties": {
        "norad_id": 31615,
        "name": "FENGYUN 1C DEB",
        "group": "fengyun-1c-debris",
        "lat": -71.80684924655193,
        "lon": 64.36603433916262,
        "alt_km": 689.3360290722076,
        "timestamp": "2025-12-09T18:55:17.515363+00:00",
        "meta_object_name": "FENGYUN 1C DEB",
        "meta_object_id": "1999-025BZV",
        "meta_epoch": "2025-12-09T09:13:03.303264",
        "meta_mean_motion": 14.35238399,
        "meta_eccentricity": 0.01658212,
        "meta_inclination": 99.1374,
        "meta_ra_of_asc_node": 34.6157,
        "meta_arg_of_pericenter": 326.6289,
        "meta_mean_anomaly": 32.4527,
        "meta_ephemeris_type": 0,
        "meta_classification_type": "U",
        "meta_norad_cat_id": 31615,
        "meta_element_set_no": 999,
        "meta_rev_at_epoch": 65230,
        "meta_bstar": 0.0040985,
        "meta_mean_motion_dot": 0.00013677,
        "meta_mean_motion_ddot": 0,
        "tle_line1": "1 31615U 99025BZV 25343.38406601  .00013677  00000+0  40985-2 0  9997",
        "tle_line2": "2 31615  99.1374  34.6157 0165821 326.6289  32.4527 14.35238399652302"
      },
      "geometry": {
        "type": "Point",
        "coordinates": [
          64.36603433916262,
          -71.80684924655193
        ]
      }
    },
    {
      "type": "Feature",
      "properties": {
        "norad_id": 31618,
        "name": "FENGYUN 1C DEB",
        "group": "fengyun-1c-debris",
        "lat": 35.678460009846255,
        "lon": -46.622521430341756,
        "alt_km": 930.5666399243819,
        "timestamp": "2025-12-09T18:55:17.515375+00:00",
        "meta_object_name": "FENGYUN 1C DEB",
        "meta_object_id": "1999-025BZY",
        "meta_epoch": "2025-12-07T15:33:01.488960",
        "meta_mean_motion": 14.21009291,
        "meta_eccentricity": 0.01572194,
        "meta_inclination": 99.4425,
        "meta_ra_of_asc_node": 124.228,
        "meta_arg_of_pericenter": 340.4885,
        "meta_mean_anomaly": 19.0314,
        "meta_ephemeris_type": 0,
        "meta_classification_type": "U",
        "meta_norad_cat_id": 31618,
        "meta_element_set_no": 999,
        "meta_rev_at_epoch": 70192,
        "meta_bstar": 0.00047528685,
        "meta_mean_motion_dot": 1.116e-05,
        "meta_mean_motion_ddot": 0,
        "tle_line1": "1 31618U 99025BZY 25341.64793390  .00001116  00000+0  47529-3 0  9998",
        "tle_line2": "2 31618  99.4425 124.2280 0157219 340.4885  19.0314 14.21009291701926"
      },
      "geometry": {
        "type": "Point",
        "coordinates": [
          -46.622521430341756,
          35.678460009846255
        ]
      }
    },
    {
      "type": "Feature",
      "properties": {
        "norad_id": 31619,
        "name": "FENGYUN 1C DEB",
        "group": "fengyun-1c-debris",
        "lat": 57.03924252686264,
        "lon": 10.212030780393668,
        "alt_km": 675.263044390962,
        "timestamp": "2025-12-09T18:55:17.515386+00:00",
        "meta_object_name": "FENGYUN 1C DEB",
        "meta_object_id": "1999-025BZZ",
        "meta_epoch": "2025-12-08T11:38:44.975328",
        "meta_mean_motion": 14.84920215,
        "meta_eccentricity": 0.0096486,
        "meta_inclination": 99.0726,
        "meta_ra_of_asc_node": 174.4634,
        "meta_arg_of_pericenter": 307.639,
        "meta_mean_anomaly": 51.6094,
        "meta_ephemeris_type": 0,
        "meta_classification_type": "U",
        "meta_norad_cat_id": 31619,
        "meta_element_set_no": 999,
        "meta_rev_at_epoch": 63425,
        "meta_bstar": 0.00555976,
        "meta_mean_motion_dot": 0.00051719,
        "meta_mean_motion_ddot": 0,
        "tle_line1": "1 31619U 99025BZZ 25342.48524277  .00051719  00000+0  55598-2 0  9996",
        "tle_line2": "2 31619  99.0726 174.4634 0096486 307.6390  51.6094 14.84920215634256"
      },
      "geometry": {
        "type": "Point",
        "coordinates": [
          10.212030780393668,
          57.03924252686264
        ]
      }
    },
    {
      "type": "Feature",
      "properties": {
        "norad_id": 31620,
        "name": "FENGYUN 1C DEB",
        "group": "fengyun-1c-debris",
        "lat": -70.15778091535734,
        "lon": -137.9199711469013,
        "alt_km": 789.2080418879614,
        "timestamp": "2025-12-09T18:55:17.515396+00:00",
        "meta_object_name": "FENGYUN 1C DEB",
        "meta_object_id": "1999-025CAA",
        "meta_epoch": "2025-12-07T23:58:44.073408",
        "meta_mean_motion": 14.37123121,
        "meta_eccentricity": 0.00207062,
        "meta_inclination": 98.8866,
        "meta_ra_of_asc_node": 65.9275,
        "meta_arg_of_pericenter": 59.0655,
        "meta_mean_anomaly": 301.2562,
        "meta_ephemeris_type": 0,
        "meta_classification_type": "U",
        "meta_norad_cat_id": 31620,
        "meta_element_set_no": 999,
        "meta_rev_at_epoch": 65776,
        "meta_bstar": 0.0029103432,
        "meta_mean_motion_dot": 8.633e-05,
        "meta_mean_motion_ddot": 0,
        "tle_line1": "1 31620U 99025CAA 25341.99912122  .00008633  00000+0  29103-2 0  9993",
        "tle_line2": "2 31620  98.8866  65.9275 0020706  59.0655 301.2562 14.37123121657763"
      },
      "geometry": {
        "type": "Point",
        "coordinates": [
          -137.9199711469013,
          -70.15778091535734
        ]
      }
    }
  ]
}